COSMOS 2433 (720)       
1 32275U 07052A   22291.51384847 -.00000078  00000+0  00000+0 0  9993
2 32275  66.0743   0.5895 0004144 225.3114 123.3782  2.13104232116580
COSMOS 2432 (719)       
1 32276U 07052B   22291.60934532 -.00000078  00000+0  00000+0 0  9996
2 32276  66.0886   0.6893 0008573 317.4978  52.4161  2.13103294116590
COSMOS 2434 (721)       
1 32393U 07065A   22290.96624644  .00000008  00000+0  00000+0 0  9990
2 32393  64.3681 237.2449 0000655  82.3063  96.2623  2.13103072115283
COSMOS 2436 (723)       
1 32395U 07065C   22291.26111670  .00000006  00000+0  00000+0 0  9994
2 32395  64.3772 237.2932 0015558 354.2916 186.2767  2.13102809115229
COSMOS 2456 (730)       
1 36111U 09070A   22291.07737541  .00000072  00000+0  00000+0 0  9995
2 36111  64.3844 116.8434 0001778 343.3049  84.4008  2.13099210 99952
COSMOS 2457 (733)       
1 36112U 09070B   22290.35743748  .00000063  00000+0  00000+0 0  9992
2 36112  64.3668 116.7404 0006405 148.7754 214.8792  2.13101390 99946
COSMOS 2461 (735)       
1 36401U 10007B   22291.24300933 -.00000079  00000+0  00000+0 0  9997
2 36401  65.9568 359.4189 0018249   5.0798 353.0750  2.13103646 98306
COSMOS 2460 (732)       
1 36402U 10007C   22291.41961957 -.00000078  00000+0  00000+0 0  9995
2 36402  65.9446 359.3608 0001657 188.9923 254.2792  2.13106415 98319
COSMOS 2464 (736)       
1 37139U 10041C   22291.03922796  .00000005  00000+0  00000+0 0  9996
2 37139  63.9674 236.2562 0029006   6.8336  85.0570  2.13100816 94368
COSMOS 2476 (744)       
1 37867U 11064A   22290.88189506  .00000070  00000+0  00000+0 0  9998
2 37867  64.6716 118.2531 0020489 231.1109 313.1621  2.13101776 85293
COSMOS 2477 (745)       
1 37868U 11064B   22291.05315689  .00000072  00000+0  00000+0 0  9994
2 37868  64.6785 118.3135 0017744 231.1340 262.5841  2.13101629 85252
COSMOS 2475 (743)       
1 37869U 11064C   22291.39563167  .00000077  00000+0  00000+0 0  9993
2 37869  64.6857 118.3113 0021470 251.2240 103.3911  2.13101951 85261
COSMOS 2485 (747)       
1 39155U 13019A   22290.81507884  .00000069  00000+0  00000+0 0  9996
2 39155  64.8336 118.7100 0021024 227.0804 310.3444  2.13101926 73762
COSMOS 2492 (754)       
1 39620U 14012A   22290.55617939 -.00000082  00000+0  00000+0 0  9997
2 39620  65.8305 359.0540 0011607 315.5389  57.6188  2.13103195 66714
COSMOS 2500 (755)       
1 40001U 14032A   22290.72284109 -.00000081  00000+0  00000+0 0  9991
2 40001  65.7689 358.9002 0008129 201.5752 157.7510  2.13102296 64920
COSMOS 2501 (702K)      
1 40315U 14075A   22291.24418273  .00000004  00000+0  00000+0 0  9999
2 40315  63.6742 236.8714 0018897 211.7434 356.1421  2.13101339 61348
COSMOS 2514 (751)       
1 41330U 16008A   22291.42230040 -.00000077  00000+0  00000+0 0  9990
2 41330  65.5680 358.5385 0012122 213.1286 146.8534  2.13102798 52114
COSMOS 2516 (753)       
1 41554U 16032A   22291.07643839  .00000006  00000+0  00000+0 0  9991
2 41554  63.9003 237.1888 0014625 215.8112 144.0872  2.13106412 49714
COSMOS 2522 (752)       
1 42939U 17055A   22291.49362559  .00000004  00000+0  00000+0 0  9996
2 42939  64.1342 237.6041 0009298 246.3841 288.3356  2.13102046 39475
COSMOS 2527 (756)       
1 43508U 18053A   22290.72381580  .00000069  00000+0  00000+0 0  9999
2 43508  64.9958 118.7394 0007293 214.4301 121.7710  2.13102444 33749
COSMOS 2529 (757)       
1 43687U 18086A   22291.45468459  .00000005  00000+0  00000+0 0  9995
2 43687  64.3487 237.9549 0011194 265.7686 194.5921  2.13102086 30789
COSMOS 2534 (758)       
1 44299U 19030A   22291.37043137  .00000006  00000+0  00000+0 0  9999
2 44299  64.4212 237.8542 0013668 284.2804 245.9087  2.13101805 26422
COSMOS 2544 (759)       
1 44850U 19088A   22291.20683119  .00000076  00000+0  16595+1 0  9991
2 44850  64.9822 118.5730 0010661 251.6348 138.4823  2.13102191 22195
COSMOS 2545 (760)       
1 45358U 20018A   22291.37611539 -.00000079  00000+0  00000+0 0  9992
2 45358  64.9072 359.0469 0010390 239.6998 129.6142  2.13102656 20159
COSMOS 2547 (705K)      
1 46805U 20075A   22291.32341242  .00000006  00000+0  00000+0 0  9998
2 46805  64.6462 237.3168 0007953 247.1425 295.0862  2.13102944 15398
COSMOS 2557 (706K)      
1 52984U 22075A   22291.24344534 -.00000082  00000+0  10000-3 0  9993
2 52984  64.8110   1.2476 0012239 276.3509  82.1894  2.13101900  2189
